OBJECT_NAME,OBJECT_ID,EPOCH,MEAN_MOTION,ECCENTRICITY,INCLINATION,RA_OF_ASC_NODE,ARG_OF_PERICENTER,MEAN_ANOMALY,EPHEMERIS_TYPE,CLASSIFICATION_TYPE,NORAD_CAT_ID,ELEMENT_SET_NO,REV_AT_EPOCH,BSTAR,MEAN_MOTION_DOT,MEAN_MOTION_DDOT
CUTE-1 (CO-55),2003-031E,2026-07-18T07:08:10.116384,14.24352673,.00108679,98.6744,207.4657,94.6885,265.5536,0,U,27844,999,19610,.74435316E-4,.128E-5,0
CUBESAT XI-IV (CO-57),2003-031J,2026-07-17T22:48:02.109024,14.23635431,.00106323,98.6776,206.8106,112.1739,248.0569,0,U,27848,999,19575,.66203101E-4,.107E-5,0
CUBESAT XI-V,2005-043F,2026-07-18T09:14:49.557120,14.72706792,.00153208,98.3020,355.6693,105.9745,254.3151,0,U,28895,999,10634,.10630429E-3,.626E-5,0
CUTE-1.7+APD II (CO-65),2008-021C,2026-07-18T14:25:47.903232,15.09717241,.00068358,97.8299,181.6832,285.4283,74.6190,0,U,32785,999,98993,.12036765E-3,.1873E-4,0
CANX-2,2008-021H,2026-07-18T15:42:49.497120,15.05815442,.00086301,97.8658,180.0522,304.1633,55.8774,0,U,32790,999,98954,.88991655E-4,.1226E-4,0
SEEDS II (CO-66),2008-021J,2026-07-18T11:04:04.594656,15.33733639,.00034594,97.7530,198.8780,149.6253,210.5190,0,U,32791,999,99208,.29893879E-3,.967E-4,0
SWISSCUBE,2009-051B,2026-07-18T12:04:39.162720,14.62534100,.00079788,98.4003,107.9339,110.2431,249.9628,0,U,35932,999,89373,.94449421E-4,.43E-5,0
BEESAT-1,2009-051C,2026-07-18T11:03:16.146720,14.61764711,.00062744,98.3930,107.4601,121.4564,238.7250,0,U,35933,999,89375,.82605984E-4,.363E-5,0
ITUPSAT1,2009-051E,2026-07-18T11:29:38.742432,14.60481304,.00082818,98.4014,106.6370,133.9775,226.2109,0,U,35935,999,89330,.76012373E-4,.32E-5,0
TISAT 1,2010-035E,2026-07-18T07:58:07.472352,15.32804931,.00046838,98.0713,148.6745,113.7604,246.4128,0,U,36799,999,87247,.35795106E-3,.1126E-3,0
STRAND-1,2013-009E,2026-07-18T10:55:33.299328,14.37179953,.00095622,98.3938,18.9224,132.2805,227.9194,0,U,39090,999,70155,.50686815E-4,.108E-5,0
BRITE-AUSTRIA,2013-009F,2026-07-18T11:33:38.756448,14.36553265,.00109399,98.4011,18.1453,141.4907,218.7063,0,U,39091,999,70154,.35785691E-4,.62E-6,0
NEE-01 PEGASO,2013-018B,2026-07-18T08:20:42.859392,14.93797792,.00136034,98.1262,344.5370,65.0738,295.1893,0,U,39151,999,71535,.14351054E-3,.1462E-4,0
POPACS 2,2013-055E,2026-07-18T04:02:52.024416,14.92100608,.04146575,80.9914,108.7152,94.3421,270.5279,0,U,39269,999,66783,.2370533E-3,.14551E-3,-.925468E-6
POPACS 3,2013-055F,2026-07-18T07:24:03.271680,14.56710923,.05483759,81.0005,195.4250,335.1698,22.3977,0,U,39270,999,64308,.1794019E-3,.7544E-4,0
ZACUBE-1 (TSHEPISOSAT),2013-066B,2026-07-18T08:00:40.959360,15.01336795,.00441066,97.8004,161.8230,145.1896,215.2227,0,U,39417,999,68540,.98204374E-4,.1226E-4,0
WNISAT-1,2013-066H,2026-07-18T07:09:27.703584,14.58123799,.01640413,97.7240,346.2522,133.5976,227.8974,0,U,39423,999,67126,.10736843E-3,.547E-5,0
TRITON-1,2013-066M,2026-07-18T15:06:07.283808,14.81800281,.00908402,97.8222,108.7176,131.0579,229.8529,0,U,39427,999,67874,.65325392E-4,.497E-5,0
GOMX-1,2013-066Q,2026-07-18T12:10:53.639328,14.69547063,.01279453,97.6461,37.9934,337.5445,22.0191,0,U,39430,999,67451,.10370987E-3,.644E-5,0
CUBEBUG-2 (LO-74),2013-066AA,2026-07-18T08:14:03.677568,14.93979922,.00555829,97.8919,148.4608,284.7062,74.8001,0,U,39440,999,68164,.18660268E-3,.1985E-4,0
NEE-02 KRYSAOR,2013-066AB,2026-07-18T07:17:31.066656,14.86746311,.00651492,97.8897,138.3004,329.0008,30.7369,0,U,39441,999,68082,.11889341E-3,.1039E-4,0
FUNCUBE-1 (AO-73),2013-066AE,2026-07-18T14:33:09.635328,15.09845015,.00379968,97.8296,171.7194,96.6399,263.9156,0,U,39444,999,68440,.26257376E-3,.4251E-4,0
UWE-3,2013-066AG,2026-07-17T19:50:06.876672,14.97209607,.0047603,97.8719,155.1139,215.4548,144.3506,0,U,39446,999,68216,.17707243E-3,.2032E-4,0
BRITE-CA1 (TORONTO),2014-033L,2026-07-18T15:09:34.801056,14.72726309,.00787354,97.9776,327.9867,175.2635,184.9336,0,U,40020,999,64684,.80467851E-4,.485E-5,0
DUCHIFAT-1,2014-033M,2026-07-18T03:55:10.668288,15.71597676,.00032592,98.0423,262.8485,233.3410,126.7552,0,U,40021,999,66060,.72542299E-3,.93801E-3,0
NANOSATC-BR1,2014-033Q,2026-07-18T00:50:59.316000,15.32384103,.00051963,98.0705,234.1779,89.7852,270.3983,0,U,40024,999,65870,.31674911E-3,.9821E-4,0
QB50P1,2014-033R,2026-07-18T07:39:18.658080,15.18693321,.0010487,98.0968,212.6585,115.5699,244.6619,0,U,40025,999,65775,.21985551E-3,.4488E-4,0
QB50P2,2014-033Y,2026-07-17T22:29:39.250176,15.15528215,.00092438,98.0766,197.7424,76.1701,284.0558,0,U,40032,999,65732,.21789873E-3,.4058E-4,0
PERSEUS-M2,2014-033AD,2026-07-18T15:25:35.109408,14.95591378,.00111235,97.9988,150.8292,187.8219,172.2829,0,U,40037,999,65548,-.9216937E-5,-.164E-5,0
PERSEUS-M1,2014-033AF,2026-07-18T06:41:19.129632,14.95721819,.00111171,97.9655,143.9248,186.0702,174.0385,0,U,40039,999,65528,.66212445E-4,.677E-5,0
